BEE-1000                
1 66650U 25274A   26068.73830348  .00004538  00000+0  44878-3 0  9994
2 66650  97.7438 359.3923 0011147 332.1906  27.8715 14.92338483 15376
CAS500-3                
1 66655U 25274F   26068.71908717  .00001750  00000+0  19463-3 0  9998
2 66655  97.7401 359.0468 0008460  99.3960 260.8214 14.88373235 15358
