[{"OBJECT_NAME":"BEE-1000","OBJECT_ID":"2025-274A","EPOCH":"2026-03-09T17:43:09.420672","MEAN_MOTION":14.92338483,"ECCENTRICITY":0.00111471,"INCLINATION":97.7438,"RA_OF_ASC_NODE":359.3923,"ARG_OF_PERICENTER":332.1906,"MEAN_ANOMALY":27.8715,"EPHEMERIS_TYPE":0,"CLASSIFICATION_TYPE":"U","NORAD_CAT_ID":66650,"ELEMENT_SET_NO":999,"REV_AT_EPOCH":1537,"BSTAR":0.00044877619,"MEAN_MOTION_DOT":4.538e-5,"MEAN_MOTION_DDOT":0},{"OBJECT_NAME":"CAS500-3","OBJECT_ID":"2025-274F","EPOCH":"2026-03-09T17:15:29.131488","MEAN_MOTION":14.88373235,"ECCENTRICITY":0.00084602,"INCLINATION":97.7401,"RA_OF_ASC_NODE":359.0468,"ARG_OF_PERICENTER":99.396,"MEAN_ANOMALY":260.8214,"EPHEMERIS_TYPE":0,"CLASSIFICATION_TYPE":"U","NORAD_CAT_ID":66655,"ELEMENT_SET_NO":999,"REV_AT_EPOCH":1535,"BSTAR":0.00019463023,"MEAN_MOTION_DOT":1.75e-5,"MEAN_MOTION_DDOT":0}]
